INTELSAT 21 (IS-21)     
1 38749U 12045A   26156.26656017 -.00000273  00000+0  00000+0 0  9997
2 38749   0.0398  82.5603 0002126 357.7072 211.4023  1.00273605 50405
INTELSAT 23 (IS-23)     
1 38867U 12057A   26156.24662949 -.00000272  00000+0  00000+0 0  9999
2 38867   0.0116 307.9774 0000275 189.6525 151.8250  1.00268001 49833
FM-6                    
1 39360U 13058A   26155.61598716 -.00000001  00000+0  00000+0 0  9990
2 39360   0.0096  36.6997 0002120 147.5696 174.2528  1.00251470 45942
INTELSAT 30 (IS-30)     
1 40271U 14062A   26155.90274479 -.00000138  00000+0  00000+0 0  9999
2 40271   0.0264  48.5331 0001113 350.9711  83.7621  1.00268318  6679
DIRECTV 14              
1 40333U 14078B   26155.90187812 -.00000113  00000+0  00000+0 0  9992
2 40333   0.0095 324.1263 0000255 199.1564 315.5074  1.00272349 41926
DIRECTV 15              
1 40663U 15026A   26155.97249914 -.00000090  00000+0  00000+0 0  9995
2 40663   0.0173   7.9959 0000127 267.6092 225.0151  1.00272632 40343
SKY MEXICO-1            
1 40664U 15026B   26156.19111441 -.00000222  00000+0  00000+0 0  9991
2 40664   0.0161   8.7312 0002311  81.2136 153.6857  1.00272813 40338
INTELSAT 34 (IS-34)     
1 40874U 15039A   26155.91054483 -.00000273  00000+0  00000+0 0  9995
2 40874   0.0092 325.9423 0000275  62.8751 136.8315  1.00269697 39512
INTELSAT 31 (IS-31)     
1 41581U 16035A   26156.25923860 -.00000139  00000+0  00000+0 0  9991
2 41581   0.0139 265.1975 0000833 321.1501  25.6319  1.00272216 36563
INTELSAT 36 (IS-36)     
1 41747U 16053A   26155.83149853 -.00000012  00000+0  00000+0 0  9990
2 41747   0.0136  12.5282 0001599 330.5945 277.9825  1.00270778 35839
INTELSAT 32E (IS-32E)   
1 41945U 17007B   26155.48523816 -.00000257  00000+0  00000+0 0  9997
2 41945   0.0180 347.8046 0000454  15.9771  20.6539  1.00272952 34098
INTELSAT 35E (IS-35E)   
1 42818U 17041A   26156.29846137 -.00000225  00000+0  00000+0 0  9994
2 42818   0.0155  13.9478 0001977  59.2508 253.4925  1.00273864 32692
INTELSAT 37E (IS-37E)   
1 42950U 17059A   26156.27444689 -.00000128  00000+0  00000+0 0  9996
2 42950   0.0158  10.7816 0002615  79.6185 244.1250  1.00271958 31947
AZERSPACE 2 (IS-38)     
1 43632U 18074A   26155.50274490  .00000148  00000+0  00000+0 0  9999
2 43632   0.0013 357.4289 0001654  67.8132  53.8049  1.00272076 28324
HORIZONS-3E             
1 43633U 18074B   26155.61572255 -.00000019  00000+0  00000+0 0  9990
2 43633   0.0181 149.5538 0000750 123.5060  10.6575  1.00270803 28213
AT&T T-16               
1 44333U 19034A   26155.97284581 -.00000103  00000+0  00000+0 0  9990
2 44333   0.0247  65.3119 0000373 219.6139 217.8574  1.00272225 25519
INTELSAT 39 (IS-39)     
1 44476U 19049B   26155.64258480  .00000045  00000+0  00000+0 0  9991
2 44476   0.0188 328.9935 0000582 359.4045 217.9725  1.00271423 25008
GALAXY 30 (G-30)        
1 46114U 20056C   26156.25325858  .00000049  00000+0  00000+0 0  9998
2 46114   0.0188 330.4888 0002402 100.7485 148.6097  1.00272482 21174
GALAXY 33 (G-33)        
1 54026U 22128A   26156.27425594  .00000091  00000+0  00000+0 0  9998
2 54026   0.0176  38.5509 0001990  35.7610 145.1426  1.00271854 13627
GALAXY 34 (G-34)        
1 54027U 22128B   26155.96729912  .00000071  00000+0  00000+0 0  9993
2 54027   0.0137   6.5753 0001970  86.4583  19.6129  1.00273793 13798
GALAXY 31 (G-31)        
1 54243U 22153A   26156.25403858  .00000025  00000+0  00000+0 0  9991
2 54243   0.0150  62.4856 0001466  12.3444 149.3142  1.00272137  7017
GALAXY 32 (G-32)        
1 54244U 22153B   26154.83402102 -.00000162  00000+0  00000+0 0  9998
2 54244   0.0097 353.7552 0002383  46.7034  61.0732  1.00270822 13013
GALAXY 35 (G-35)        
1 54741U 22170A   26156.25958527 -.00000150  00000+0  00000+0 0  9991
2 54741   0.0138   8.5361 0002248  69.0413 176.4738  1.00272351 12771
GALAXY 36 (G-36)        
1 54742U 22170B   26156.04415038 -.00000173  00000+0  00000+0 0  9999
2 54742   0.0166 245.1596 0002876 195.6515  99.5737  1.00272495 12658
GALAXY 37 (G-37)        
1 57493U 23112A   26155.96773245  .00000060  00000+0  00000+0 0  9993
2 57493   0.0166 319.4800 0002232 117.5390  37.7833  1.00273223 10421
